ONEWEB-0642             
1 55806U 23029L   26176.89301024 -.00000133  00000+0 -36557-3 0  9996
2 55806  87.9175 303.2424 0002007 125.1441 234.9880 13.19725021160055
ONEWEB-0643             
1 55807U 23029M   26176.82153128  .00000057  00000+0  11934-3 0  9995
2 55807  87.8955 288.0083 0002237 118.6473 241.4882 13.14503778160524
ONEWEB-0644             
1 55808U 23029N   26176.88826734 -.00000078  00000+0 -22755-3 0  9990
2 55808  87.9170 303.2445 0001952 111.3121 248.8220 13.19725396160052
ONEWEB-0645             
1 55809U 23029P   26176.91037997 -.00000019  00000+0 -80154-4 0  9993
2 55809  87.9175 303.2373 0001512 109.1253 251.0043 13.19724709160057
ONEWEB-0646             
1 55810U 23029Q   26176.85194220  .00000021  00000+0  19170-4 0  9992
2 55810  87.9171 303.2490 0001946 108.8263 251.3081 13.19725265160034
ONEWEB-0648             
1 55811U 23029R   26176.86592860 -.00000229  00000+0 -65099-3 0  9998
2 55811  87.8972 287.9741 0001498 127.7626 232.3639 13.14500855160539
ONEWEB-0649             
1 55812U 23029S   26176.87720494  .00000002  00000+0 -26633-4 0  9996
2 55812  87.9175 303.2417 0001761 105.9647 254.1680 13.19725213160071
ONEWEB-0650             
1 55813U 23029T   26176.87247213 -.00000008  00000+0 -53001-4 0  9996
2 55813  87.9175 303.2453 0001896 119.1859 240.9463 13.19729483160045
ONEWEB-0652             
1 55814U 23029U   26176.84689317  .00000240  00000+0  61251-3 0  9990
2 55814  87.8964 287.9846 0002001  97.5596 262.5761 13.14501801160500
ONEWEB-0653             
1 55815U 23029V   26176.75491469  .00000228  00000+0  57941-3 0  9997
2 55815  87.8969 288.0011 0001920  98.7591 261.3756 13.14503807160520
ONEWEB-0654             
1 55816U 23029W   26176.82627037  .00000114  00000+0  27340-3 0  9992
2 55816  87.8967 287.9829 0002057  90.5638 269.5728 13.14504654160551
ONEWEB-0656             
1 55817U 23029X   26176.68915513  .00000030  00000+0  42808-4 0  9990
2 55817  87.9199 272.7361 0002245  89.7931 270.3459 13.20773553162273
ONEWEB-0657             
1 55818U 23029Y   26176.86773919 -.00000087  00000+0 -24897-3 0  9994
2 55818  87.9175 303.2449 0002601  97.1335 263.0094 13.19724895160053
ONEWEB-0658             
1 55819U 23029Z   26177.16626737 -.00000031  00000+0 -10859-3 0  9996
2 55819  87.9186 303.1618 0001902 112.0729 248.0606 13.19725065160108
ONEWEB-0660             
1 55820U 23029AA  26176.80407294 -.00000244  00000+0 -69342-3 0  9990
2 55820  87.8977 287.9817 0001659 103.7571 256.3744 13.14503645160533
ONEWEB-0661             
1 55821U 23029AB  26176.83897713  .00000168  00000+0  41820-3 0  9997
2 55821  87.8961 288.0178 0001619  98.8116 261.3197 13.14503120160529
ONEWEB-0662             
1 55822U 23029AC  26176.87385948 -.00000248  00000+0 -70253-3 0  9997
2 55822  87.8959 288.0169 0001635 104.0752 256.0559 13.14502563160579
ONEWEB-0663             
1 55823U 23029AD  26177.17674197  .00000054  00000+0  10103-3 0  9990
2 55823  87.9199 272.7101 0001721 111.5797 248.5520 13.20869669162331
ONEWEB-0664             
1 55824U 23029AE  26176.82721911  .00000031  00000+0  44759-4 0  9999
2 55824  87.9184 272.7599 0001630  89.4725 270.6595 13.20770908162289
ONEWEB-0665             
1 55825U 23029AF  26176.83580326  .00000172  00000+0  42931-3 0  9999
2 55825  87.8960 287.9992 0001648 106.9637 253.1673 13.14503675160540
ONEWEB-0666             
1 55826U 23029AG  26176.82047985 -.00000035  00000+0 -11873-3 0  9999
2 55826  87.9183 272.7513 0002722  97.8476 262.2966 13.20771775162298
ONEWEB-0667             
1 55827U 23029AH  26177.19421510  .00000062  00000+0  11975-3 0  9992
2 55827  87.9201 272.6358 0001835 101.2166 258.9173 13.20772207162334
ONEWEB-0669             
1 55828U 23029AJ  26177.18915932  .00000019  00000+0  14066-4 0  9995
2 55828  87.9194 272.6476 0002066  84.2977 275.8392 13.20772200162338
ONEWEB-0670             
1 55829U 23029AK  26176.81358422 -.00000025  00000+0 -10321-3 0  9998
2 55829  87.8956 288.0210 0001562  94.7253 265.4055 13.14500747160566
ONEWEB-0671             
1 55830U 23029AL  26176.85825134  .00000056  00000+0  10863-3 0  9996
2 55830  87.9174 303.2482 0001707 101.1505 258.9820 13.19725121160046
ONEWEB-0672             
1 55831U 23029AM  26176.80531698 -.00000087  00000+0 -24680-3 0  9999
2 55831  87.9198 272.7169 0002283  96.2235 263.9159 13.20772636162283
ONEWEB-0673             
1 55832U 23029AN  26176.91115147 -.00000082  00000+0 -23824-3 0  9993
2 55832  87.9180 303.2295 0001866  98.6856 261.4489 13.19723785160057
ONEWEB-0674             
1 55833U 23029AP  26176.85798416 -.00000578  00000+0 -15948-2 0  9990
2 55833  87.8958 287.9888 0001554  93.1600 266.9707 13.14508770160555
ONEWEB-0675             
1 55834U 23029AQ  26176.85036455  .00000006  00000+0 -16490-4 0  9999
2 55834  87.9173 303.2512 0002217 101.8733 258.2648 13.19724937160067
ONEWEB-0720             
1 55835U 23029AR  26176.91827728  .00000055  00000+0  10551-3 0  9992
2 55835  87.9173 303.2378 0001775 108.5398 251.5927 13.19725358159991
