OBJECT_NAME,OBJECT_ID,EPOCH,MEAN_MOTION,ECCENTRICITY,INCLINATION,RA_OF_ASC_NODE,ARG_OF_PERICENTER,MEAN_ANOMALY,EPHEMERIS_TYPE,CLASSIFICATION_TYPE,NORAD_CAT_ID,ELEMENT_SET_NO,REV_AT_EPOCH,BSTAR,MEAN_MOTION_DOT,MEAN_MOTION_DDOT
ONEWEB-0642,2023-029L,2026-06-25T21:25:56.084736,13.19725021,.0002007,87.9175,303.2424,125.1441,234.9880,0,U,55806,999,16005,-.36557E-3,-.133E-5,0
ONEWEB-0643,2023-029M,2026-06-25T19:43:00.302592,13.14503778,.0002237,87.8955,288.0083,118.6473,241.4882,0,U,55807,999,16052,.11934E-3,.57E-6,0
ONEWEB-0644,2023-029N,2026-06-25T21:19:06.298176,13.19725396,.0001952,87.9170,303.2445,111.3121,248.8220,0,U,55808,999,16005,-.22755E-3,-.78E-6,0
ONEWEB-0645,2023-029P,2026-06-25T21:50:56.829408,13.19724709,.0001512,87.9175,303.2373,109.1253,251.0043,0,U,55809,999,16005,-.80154E-4,-.19E-6,0
ONEWEB-0646,2023-029Q,2026-06-25T20:26:47.806080,13.19725265,.0001946,87.9171,303.2490,108.8263,251.3081,0,U,55810,999,16003,.1917E-4,.21E-6,0
ONEWEB-0648,2023-029R,2026-06-25T20:46:56.231040,13.14500855,.0001498,87.8972,287.9741,127.7626,232.3639,0,U,55811,999,16053,-.65099E-3,-.229E-5,0
ONEWEB-0649,2023-029S,2026-06-25T21:03:10.506816,13.19725213,.0001761,87.9175,303.2417,105.9647,254.1680,0,U,55812,999,16007,-.26633E-4,.2E-7,0
ONEWEB-0650,2023-029T,2026-06-25T20:56:21.592032,13.19729483,.0001896,87.9175,303.2453,119.1859,240.9463,0,U,55813,999,16004,-.53001E-4,-.8E-7,0
ONEWEB-0652,2023-029U,2026-06-25T20:19:31.569888,13.14501801,.0002001,87.8964,287.9846,97.5596,262.5761,0,U,55814,999,16050,.61251E-3,.24E-5,0
ONEWEB-0653,2023-029V,2026-06-25T18:07:04.629216,13.14503807,.000192,87.8969,288.0011,98.7591,261.3756,0,U,55815,999,16052,.57941E-3,.228E-5,0
ONEWEB-0654,2023-029W,2026-06-25T19:49:49.759968,13.14504654,.0002057,87.8967,287.9829,90.5638,269.5728,0,U,55816,999,16055,.2734E-3,.114E-5,0
ONEWEB-0656,2023-029X,2026-06-25T16:32:23.003232,13.20773553,.0002245,87.9199,272.7361,89.7931,270.3459,0,U,55817,999,16227,.42808E-4,.3E-6,0
ONEWEB-0657,2023-029Y,2026-06-25T20:49:32.666016,13.19724895,.0002601,87.9175,303.2449,97.1335,263.0094,0,U,55818,999,16005,-.24897E-3,-.87E-6,0
ONEWEB-0658,2023-029Z,2026-06-26T03:59:25.500768,13.19725065,.0001902,87.9186,303.1618,112.0729,248.0606,0,U,55819,999,16010,-.10859E-3,-.31E-6,0
ONEWEB-0660,2023-029AA,2026-06-25T19:17:51.902016,13.14503645,.0001659,87.8977,287.9817,103.7571,256.3744,0,U,55820,999,16053,-.69342E-3,-.244E-5,0
ONEWEB-0661,2023-029AB,2026-06-25T20:08:07.624032,13.14503120,.0001619,87.8961,288.0178,98.8116,261.3197,0,U,55821,999,16052,.4182E-3,.168E-5,0
ONEWEB-0662,2023-029AC,2026-06-25T20:58:21.459072,13.14502563,.0001635,87.8959,288.0169,104.0752,256.0559,0,U,55822,999,16057,-.70253E-3,-.248E-5,0
ONEWEB-0663,2023-029AD,2026-06-26T04:14:30.506208,13.20869669,.0001721,87.9199,272.7101,111.5797,248.5520,0,U,55823,999,16233,.10103E-3,.54E-6,0
ONEWEB-0664,2023-029AE,2026-06-25T19:51:11.731104,13.20770908,.000163,87.9184,272.7599,89.4725,270.6595,0,U,55824,999,16228,.44759E-4,.31E-6,0
ONEWEB-0665,2023-029AF,2026-06-25T20:03:33.401664,13.14503675,.0001648,87.8960,287.9992,106.9637,253.1673,0,U,55825,999,16054,.42931E-3,.172E-5,0
ONEWEB-0666,2023-029AG,2026-06-25T19:41:29.459040,13.20771775,.0002722,87.9183,272.7513,97.8476,262.2966,0,U,55826,999,16229,-.11873E-3,-.35E-6,0
ONEWEB-0667,2023-029AH,2026-06-26T04:39:40.184640,13.20772207,.0001835,87.9201,272.6358,101.2166,258.9173,0,U,55827,999,16233,.11975E-3,.62E-6,0
ONEWEB-0669,2023-029AJ,2026-06-26T04:32:23.365248,13.20772200,.0002066,87.9194,272.6476,84.2977,275.8392,0,U,55828,999,16233,.14066E-4,.19E-6,0
ONEWEB-0670,2023-029AK,2026-06-25T19:31:33.676608,13.14500747,.0001562,87.8956,288.0210,94.7253,265.4055,0,U,55829,999,16056,-.10321E-3,-.25E-6,0
ONEWEB-0671,2023-029AL,2026-06-25T20:35:52.915776,13.19725121,.0001707,87.9174,303.2482,101.1505,258.9820,0,U,55830,999,16004,.10863E-3,.56E-6,0
ONEWEB-0672,2023-029AM,2026-06-25T19:19:39.387072,13.20772636,.0002283,87.9198,272.7169,96.2235,263.9159,0,U,55831,999,16228,-.2468E-3,-.87E-6,0
ONEWEB-0673,2023-029AN,2026-06-25T21:52:03.487008,13.19723785,.0001866,87.9180,303.2295,98.6856,261.4489,0,U,55832,999,16005,-.23824E-3,-.82E-6,0
ONEWEB-0674,2023-029AP,2026-06-25T20:35:29.831424,13.14508770,.0001554,87.8958,287.9888,93.1600,266.9707,0,U,55833,999,16055,-.15948E-2,-.578E-5,0
ONEWEB-0675,2023-029AQ,2026-06-25T20:24:31.497120,13.19724937,.0002217,87.9173,303.2512,101.8733,258.2648,0,U,55834,999,16006,-.1649E-4,.6E-7,0
ONEWEB-0720,2023-029AR,2026-06-25T22:02:19.156992,13.19725358,.0001775,87.9173,303.2378,108.5398,251.5927,0,U,55835,999,15999,.10551E-3,.55E-6,0
